NORAD_CAT_ID,OBJECT_NAME,OBJECT_TYPE,EPOCH,MEAN_MOTION,ECCENTRICITY,INCLINATION,RA_OF_ASC_NODE,ARG_OF_PERICENTER,MEAN_ANOMALY,BSTAR,MEAN_MOTION_DOT,MEAN_MOTION_DDOT,TLE_LINE0,TLE_LINE1,TLE_LINE2,SEMIMAJOR_AXIS,PERIOD,APOGEE,PERIGEE,DECAYED
54775.0,STARLINK-5465,PAYLOAD,2023-03-03 04:55:32,15.08850803,5.91e-05,53.2171,313.1954,72.8793,287.2264,0.00058459,9.031e-05,0.0,0 STARLINK-5465,1 54775U 22175T   23062.20523398  .00009031  00000-0  58459-3 0  9997,2 54775  53.2171 313.1954 0000591  72.8793 287.2264 15.08850803 11322,6917.847,95.437,540.121,539.304,0.0
54775.0,STARLINK-5465,PAYLOAD,2023-03-03 22:24:47,15.08865331,0.0001062,53.2175,309.9253,79.0547,281.0564,0.00010528,1.389e-05,0.0,0 STARLINK-5465,1 54775U 22175T   23062.93388367  .00001389  00000-0  10528-3 0  9995,2 54775  53.2175 309.9253 0001062  79.0547 281.0564 15.08865331 13599,6917.803,95.436,540.403,538.933,0.0
54775.0,STARLINK-5465,PAYLOAD,2023-03-04 01:35:33,15.08871264,9.28e-05,53.2174,309.3304,83.2733,276.8365,0.00014779,2.067e-05,0.0,0 STARLINK-5465,1 54775U 22175T   23063.06635579  .00002067  00000-0  14779-3 0  9996,2 54775  53.2174 309.3304 0000928  83.2733 276.8365 15.08871264 11459,6917.785,95.436,540.292,539.008,0.0
54775.0,STARLINK-5465,PAYLOAD,2023-03-04 04:46:18,15.08874538,8.65e-05,53.2173,308.7358,87.6312,272.4779,0.00018766,2.703e-05,0.0,0 STARLINK-5465,1 54775U 22175T   23063.19882974  .00002703  00000-0  18766-3 0  9990,2 54775  53.2173 308.7358 0000865  87.6312 272.4779 15.08874538 13631,6917.775,95.435,540.238,539.041,0.0
54775.0,STARLINK-5465,PAYLOAD,2023-03-04 19:04:50,15.08832303,9.04e-05,53.2173,306.0605,90.4037,269.7058,-0.00034363,-5.751e-05,0.0,0 STARLINK-5465,1 54775U 22175T   23063.79503465 -.00005751  00000-0 -34363-3 0  9990,2 54775  53.2173 306.0605 0000904  90.4037 269.7058 15.08832303 11560,6917.904,95.438,540.394,539.144,0.0
54775.0,STARLINK-5465,PAYLOAD,2023-03-04 22:15:36,15.08845727,9.3e-05,53.2175,305.4658,90.8971,269.2128,-0.0002156,-3.718e-05,0.0,0 STARLINK-5465,1 54775U 22175T   23063.92750276 -.00003718  00000-0 -21560-3 0  9995,2 54775  53.2175 305.4658 0000930  90.8971 269.2128 15.08845727 13742,6917.863,95.437,540.371,539.085,0.0
54775.0,STARLINK-5465,PAYLOAD,2023-03-05 22:06:22,15.0884783,0.0001038,53.2182,301.0057,89.384,270.7271,-0.00010321,-1.93e-05,0.0,0 STARLINK-5465,1 54775U 22175T   23064.92109737 -.00001930  00000-0 -10321-3 0  9993,2 54775  53.2182 301.0057 0001038  89.3840 270.7271 15.08847830 13892,6917.856,95.437,540.44,539.003,0.0
54775.0,STARLINK-5465,PAYLOAD,2023-03-05 23:41:44,15.08863517,9.96e-05,53.2171,300.7064,85.9493,274.1613,-1.1928e-05,-4.78e-06,0.0,0 STARLINK-5465,1 54775U 22175T   23064.98732455 -.00000478  00000-0 -11928-4 0  9999,2 54775  53.2171 300.7064 0000996  85.9493 274.1613 15.08863517 11742,6917.809,95.436,540.363,538.984,0.0
54775.0,STARLINK-5465,PAYLOAD,2023-03-06 21:57:09,15.0883815,9.94e-05,53.2156,296.5438,85.3201,274.7905,6.4954e-05,7.46e-06,0.0,0 STARLINK-5465,1 54775U 22175T   23065.91469711  .00000746  00000-0  64954-4 0  9998,2 54775  53.2156 296.5438 0000994  85.3201 274.7905 15.08838150 14042,6917.886,95.438,540.439,539.063,0.0
54775.0,STARLINK-5465,PAYLOAD,2023-03-07 02:43:18,15.08843452,0.0001177,53.2157,295.6518,83.5745,276.5381,0.00010335,1.358e-05,0.0,0 STARLINK-5465,1 54775U 22175T   23066.11341238  .00001358  00000-0  10335-3 0  9997,2 54775  53.2157 295.6518 0001177  83.5745 276.5381 15.08843452 11911,6917.87,95.437,540.549,538.921,0.0
54775.0,STARLINK-5465,PAYLOAD,2023-03-07 17:01:47,15.08824726,0.0001493,53.212,292.974,92.5863,267.53,0.00019819,2.866e-05,0.0,0 STARLINK-5465,1 54775U 22175T   23066.70957897  .00002866  00000-0  19819-3 0  9997,2 54775  53.2120 292.9740 0001493  92.5863 267.5300 15.08824726 12005,6917.927,95.439,540.825,538.759,0.0
54775.0,STARLINK-5465,PAYLOAD,2023-03-07 21:47:56,15.08832212,0.0001536,53.2113,292.0825,86.6431,273.4737,0.00021782,3.18e-05,0.0,0 STARLINK-5465,1 54775U 22175T   23066.90829403  .00003180  00000-0  21782-3 0  9992,2 54775  53.2113 292.0825 0001536  86.6431 273.4737 15.08832212 14196,6917.904,95.438,540.832,538.707,0.0
54775.0,STARLINK-5465,PAYLOAD,2023-03-08 00:58:42,15.08850247,0.0001056,53.2151,291.4889,72.9864,287.1243,-2.6208e-05,-7.05e-06,0.0,0 STARLINK-5465,1 54775U 22175T   23067.04077340 -.00000705  00000-0 -26208-4 0  9994,2 54775  53.2151 291.4889 0001056  72.9864 287.1243 15.08850247 12051,6917.849,95.437,540.445,538.984,0.0
54775.0,STARLINK-5465,PAYLOAD,2023-03-08 21:38:45,15.08825894,9.43e-05,53.2119,287.6224,87.6065,272.5035,-4.1327e-05,-9.45e-06,0.0,0 STARLINK-5465,1 54775U 22175T   23067.90191172 -.00000945  00000-0 -41327-4 0  9994,2 54775  53.2119 287.6224 0000943  87.6065 272.5035 15.08825894 14346,6917.924,95.438,540.441,539.136,0.0
54775.0,STARLINK-5465,PAYLOAD,2023-03-09 19:54:08,15.08843642,7.27e-05,53.2162,283.46,68.3516,291.7554,5.8134e-05,6.38e-06,0.0,0 STARLINK-5465,1 54775U 22175T   23068.82926075  .00000638  00000-0  58134-4 0  9995,2 54775  53.2162 283.4600 0000727  68.3516 291.7554 15.08843642 12329,6917.869,95.437,540.237,539.231,0.0
54775.0,STARLINK-5465,PAYLOAD,2023-03-09 21:29:31,15.08845546,7.42e-05,53.2157,283.1626,77.9187,282.1888,7.7321e-05,9.43e-06,0.0,0 STARLINK-5465,1 54775U 22175T   23068.89549901  .00000943  00000-0  77321-4 0  9999,2 54775  53.2157 283.1626 0000742  77.9187 282.1888 15.08845546 14494,6917.863,95.437,540.242,539.215,0.0
54775.0,STARLINK-5465,PAYLOAD,2023-03-10 19:44:56,15.08832639,7.74e-05,53.2158,278.9999,95.2791,264.829,1.8175e-05,2e-08,0.0,0 STARLINK-5465,1 54775U 22175T   23069.82287357  .00000002  00000-0  18175-4 0  9995,2 54775  53.2158 278.9999 0000774  95.2791 264.8290 15.08832639 12478,6917.903,95.438,540.303,539.232,0.0
54775.0,STARLINK-5465,PAYLOAD,2023-03-10 21:20:19,15.08834477,5.83e-05,53.2163,278.7038,103.9538,256.1519,2.0372e-05,3.7e-07,0.0,0 STARLINK-5465,1 54775U 22175T   23069.88911265  .00000037  00000-0  20372-4 0  9993,2 54775  53.2163 278.7038 0000583 103.9538 256.1519 15.08834477 14641,6917.897,95.438,540.166,539.359,0.0
54775.0,STARLINK-5465,PAYLOAD,2023-03-11 00:31:04,15.08843499,7.55e-05,53.2164,278.1093,110.2051,249.9023,0.00010097,1.32e-05,0.0,0 STARLINK-5465,1 54775U 22175T   23070.02158544  .00001320  00000-0  10097-3 0  9992,2 54775  53.2164 278.1093 0000755 110.2051 249.9023 15.08843499 12506,6917.87,95.437,540.257,539.212,0.0
54775.0,STARLINK-5465,PAYLOAD,2023-03-11 13:14:10,15.08842829,8.29e-05,53.2165,275.7274,87.4177,272.691,-2.0175e-05,-6.09e-06,0.0,0 STARLINK-5465,1 54775U 22175T   23070.55150952 -.00000609  00000-0 -20175-4 0  9995,2 54775  53.2165 275.7274 0000829  87.4177 272.6910 15.08842829 14749,6917.872,95.437,540.31,539.163,0.0
54775.0,STARLINK-5465,PAYLOAD,2023-03-11 16:24:56,15.08845538,0.0001057,53.2169,275.1343,80.5555,279.5556,-3.7306e-05,-8.82e-06,0.0,0 STARLINK-5465,1 54775U 22175T   23070.68398780 -.00000882  00000-0 -37306-4 0  9999,2 54775  53.2169 275.1343 0001057  80.5555 279.5556 15.08845538 14766,6917.863,95.437,540.46,538.997,0.0
54775.0,STARLINK-5465,PAYLOAD,2023-03-12 01:57:14,15.08858413,6.66e-05,53.2169,273.3463,78.5976,281.5091,5.9016e-05,6.52e-06,0.0,0 STARLINK-5465,1 54775U 22175T   23071.08141378  .00000652  00000-0  59016-4 0  9998,2 54775  53.2169 273.3463 0000666  78.5976 281.5091 15.08858413 12668,6917.824,95.436,540.15,539.228,0.0
54775.0,STARLINK-5465,PAYLOAD,2023-03-12 13:04:58,15.08826315,8.56e-05,53.2179,271.2703,36.3751,323.7299,-0.00011229,-2.074e-05,0.0,0 STARLINK-5465,1 54775U 22175T   23071.54512479 -.00002074  00000-0 -11229-3 0  9998,2 54775  53.2179 271.2703 0000856  36.3751 323.7299 15.08826315 14899,6917.922,95.438,540.379,539.195,0.0
54775.0,STARLINK-5465,PAYLOAD,2023-03-12 22:37:16,15.08840471,0.0001299,53.2151,269.4836,86.3937,273.7204,-1.7723e-05,-5.7e-06,0.0,0 STARLINK-5465,1 54775U 22175T   23071.94255315 -.00000570  00000-0 -17723-4 0  9990,2 54775  53.2151 269.4836 0001299  86.3937 273.7204 15.08840471 12794,6917.879,95.438,540.643,538.845,0.0
54775.0,STARLINK-5465,PAYLOAD,2023-03-13 12:55:44,15.08838037,0.0001051,53.2176,266.807,95.1811,264.9301,3.0534e-05,1.98e-06,0.0,0 STARLINK-5465,1 54775U 22175T   23072.53871184  .00000198  00000-0  30534-4 0  9993,2 54775  53.2176 266.8070 0001051  95.1811 264.9301 15.08838037 15043,6917.886,95.438,540.478,539.024,0.0
54775.0,STARLINK-5465,PAYLOAD,2023-03-13 16:06:30,15.08842381,9.35e-05,53.2165,266.211,82.0178,278.092,-3.1603e-05,-7.91e-06,0.0,0 STARLINK-5465,1 54775U 22175T   23072.67119182 -.00000791  00000-0 -31603-4 0  9990,2 54775  53.2165 266.2110 0000935  82.0178 278.0920 15.08842381 15063,6917.873,95.437,540.385,539.091,0.0
54775.0,STARLINK-5465,PAYLOAD,2023-03-14 00:03:25,15.0885356,8.21e-05,53.2167,264.7226,92.9475,267.1611,3.0044e-05,1.91e-06,0.0,0 STARLINK-5465,1 54775U 22175T   23073.00237983  .00000191  00000-0  30044-4 0  9998,2 54775  53.2167 264.7226 0000821  92.9475 267.1611 15.08853560 12952,6917.839,95.437,540.272,539.136,0.0
54775.0,STARLINK-5465,PAYLOAD,2023-03-14 19:08:03,15.08845616,0.0001124,53.2138,261.1537,95.7096,264.4024,5.316e-05,5.58e-06,0.0,0 STARLINK-5465,1 54775U 22175T   23073.79726350  .00000558  00000-0  53160-4 0  9996,2 54775  53.2138 261.1537 0001124  95.7096 264.4024 15.08845616 13078,6917.863,95.437,540.506,538.951,0.0
54775.0,STARLINK-5465,PAYLOAD,2023-03-15 12:37:18,15.08844958,0.0001181,53.216,257.8817,95.5927,264.52,4.9655e-06,-2.09e-06,0.0,0 STARLINK-5465,1 54775U 22175T   23074.52590458 -.00000209  00000-0  49655-5 0  9995,2 54775  53.2160 257.8817 0001181  95.5927 264.5200 15.08844958 15347,6917.865,95.437,540.547,538.913,0.0
54775.0,STARLINK-5465,PAYLOAD,2023-03-15 22:09:36,15.08852439,9.12e-05,53.2169,256.1005,85.3115,274.7982,3.5934e-05,2.84e-06,0.0,0 STARLINK-5465,1 54775U 22175T   23074.92333573  .00000284  00000-0  35934-4 0  9998,2 54775  53.2169 256.1005 0000912  85.3115 274.7982 15.08852439 15404,6917.842,95.437,540.338,539.076,0.0
